OSCAR 31                
1 19420U 88074B   26064.43124965  .00000108  00000+0  17027-3 0  9993
2 19420  90.0429  20.8873 0094721   5.8833 109.5420 13.42597123837602
