[{"OBJECT_NAME":"OSCAR 31","OBJECT_ID":"1988-074B","EPOCH":"2026-03-05T10:20:59.969760","MEAN_MOTION":13.42597123,"ECCENTRICITY":0.0094721,"INCLINATION":90.0429,"RA_OF_ASC_NODE":20.8873,"ARG_OF_PERICENTER":5.8833,"MEAN_ANOMALY":109.542,"EPHEMERIS_TYPE":0,"CLASSIFICATION_TYPE":"U","NORAD_CAT_ID":19420,"ELEMENT_SET_NO":999,"REV_AT_EPOCH":83760,"BSTAR":0.00017027,"MEAN_MOTION_DOT":1.08e-6,"MEAN_MOTION_DDOT":0}]
